[
    {
        "Altitude(m)": 604221.2281436957,
        "Argument of Periapsis(deg)": 0.0,
        "Eccentricity": 0.0,
        "Inclination(deg)": 60.0,
        "Latitude(deg)": 14.117381671224534,
        "Longitude(deg)": 78.33414060343505,
        "Mean Anomaly(deg)": 16.363600000000012,
        "RAAN(deg)": 170.00000000000003,
        "Satellite Name": "Test1 749",
        "Satellite Number": 749,
        "Semi-Major Axis(m)": 6980739.136638005,
        "Time(s)": 0
    },
    {
        "Altitude(m)": 604235.3699282348,
        "Argument of Periapsis(deg)": 0.00010418945913296404,
        "Eccentricity": 0.0,
        "Inclination(deg)": 60.0,
        "Latitude(deg)": 14.65177869308762,
        "Longitude(deg)": 78.62258720293059,
        "Mean Anomaly(deg)": 16.983706145461838,
        "RAAN(deg)": 169.99957995086027,
        "Satellite Name": "Test1 749",
        "Satellite Number": 749,
        "Semi-Major Axis(m)": 6980739.136638005,
        "Time(s)": 10
    },
    {
        "Altitude(m)": 604252.4088051678,
        "Argument of Periapsis(deg)": 0.0002083789182659281,
        "Eccentricity": 0.0,
        "Inclination(deg)": 60.0,
        "Latitude(deg)": 15.185685900463396,
        "Longitude(deg)": 78.91263681481898,
        "Mean Anomaly(deg)": 17.603812290923667,
        "RAAN(deg)": 169.99915990172053,
        "Satellite Name": "Test1 749",
        "Satellite Number": 749,
        "Semi-Major Axis(m)": 6980739.136638005,
        "Time(s)": 20
    },
    {
        "Altitude(m)": 604272.3129453358,
        "Argument of Periapsis(deg)": 0.00031256837739889213,
        "Eccentricity": 0.0,
        "Inclination(deg)": 60.0,
        "Latitude(deg)": 15.719081988762898,
        "Longitude(deg)": 79.20435695141704,
        "Mean Anomaly(deg)": 18.223918436385496,
        "RAAN(deg)": 169.99873985258077,
        "Satellite Name": "Test1 749",
        "Satellite Number": 749,
        "Semi-Major Axis(m)": 6980739.136638005,
        "Time(s)": 30
    },
    {
        "Altitude(m)": 604295.0492448423,
        "Argument of Periapsis(deg)": 0.0004167578365318562,
        "Eccentricity": 0.0,
        "Inclination(deg)": 60.0,
        "Latitude(deg)": 16.2519453176785,
        "Longitude(deg)": 79.49781664766765,
        "Mean Anomaly(deg)": 18.84402458184732,
        "RAAN(deg)": 169.99831980344106,
        "Satellite Name": "Test1 749",
        "Satellite Number": 749,
        "Semi-Major Axis(m)": 6980739.136638005,
        "Time(s)": 40
    },
    {
        "Altitude(m)": 604320.5833440046,
        "Argument of Periapsis(deg)": 0.0005209472956648203,
        "Eccentricity": 0.0,
        "Inclination(deg)": 60.0,
        "Latitude(deg)": 16.78425389514685,
        "Longitude(deg)": 79.79308549672034,
        "Mean Anomaly(deg)": 19.46413072730915,
        "RAAN(deg)": 169.99789975430127,
        "Satellite Name": "Test1 749",
        "Satellite Number": 749,
        "Semi-Major Axis(m)": 6980739.136638005,
        "Time(s)": 50
    },
    {
        "Altitude(m)": 604348.8796468653,
        "Argument of Periapsis(deg)": 0.0006251367547977843,
        "Eccentricity": 0.0,
        "Inclination(deg)": 60.0,
        "Latitude(deg)": 17.315985360829607,
        "Longitude(deg)": 80.09023419924006,
        "Mean Anomaly(deg)": 20.084236872770976,
        "RAAN(deg)": 169.99747970516154,
        "Satellite Name": "Test1 749",
        "Satellite Number": 749,
        "Semi-Major Axis(m)": 6980739.136638005,
        "Time(s)": 60
    },
    {
        "Altitude(m)": 604379.9013413038,
        "Argument of Periapsis(deg)": 0.0007293262139307483,
        "Eccentricity": 0.0,
        "Inclination(deg)": 60.0,
        "Latitude(deg)": 17.84711696908782,
        "Longitude(deg)": 80.3893351135954,
        "Mean Anomaly(deg)": 20.70434301823283,
        "RAAN(deg)": 169.9970596560218,
        "Satellite Name": "Test1 749",
        "Satellite Number": 749,
        "Semi-Major Axis(m)": 6980739.136638005,
        "Time(s)": 70
    },
    {
        "Altitude(m)": 604413.6104197135,
        "Argument of Periapsis(deg)": 0.0008335156730637124,
        "Eccentricity": 0.0,
        "Inclination(deg)": 60.0,
        "Latitude(deg)": 18.377625571425057,
        "Longitude(deg)": 80.69046129407639,
        "Mean Anomaly(deg)": 21.32444916369466,
        "RAAN(deg)": 169.99663960688207,
        "Satellite Name": "Test1 749",
        "Satellite Number": 749,
        "Semi-Major Axis(m)": 6980739.136638005,
        "Time(s)": 80
    },
    {
        "Altitude(m)": 604449.967700252,
        "Argument of Periapsis(deg)": 0.0009377051321966765,
        "Eccentricity": 0.0,
        "Inclination(deg)": 60.0,
        "Latitude(deg)": 18.907487598376424,
        "Longitude(deg)": 80.99368704291211,
        "Mean Anomaly(deg)": 21.944555309156485,
        "RAAN(deg)": 169.9962195577423,
        "Satellite Name": "Test1 749",
        "Satellite Number": 749,
        "Semi-Major Axis(m)": 6980739.136638005,
        "Time(s)": 90
    },
    {
        "Altitude(m)": 604488.9328486404,
        "Argument of Periapsis(deg)": 0.0010418945913296407,
        "Eccentricity": 0.0,
        "Inclination(deg)": 60.0,
        "Latitude(deg)": 19.436679040816873,
        "Longitude(deg)": 81.2990884632377,
        "Mean Anomaly(deg)": 22.564661454618314,
        "RAAN(deg)": 169.99579950860257,
        "Satellite Name": "Test1 749",
        "Satellite Number": 749,
        "Semi-Major Axis(m)": 6980739.136638005,
        "Time(s)": 100
    },
    {
        "Altitude(m)": 604530.4644004921,
        "Argument of Periapsis(deg)": 0.0011460840504626045,
        "Eccentricity": 0.0,
        "Inclination(deg)": 60.0,
        "Latitude(deg)": 19.96517543066188,
        "Longitude(deg)": 81.6067425001538,
        "Mean Anomaly(deg)": 23.18476760008014,
        "RAAN(deg)": 169.99537945946284,
        "Satellite Name": "Test1 749",
        "Satellite Number": 749,
        "Semi-Major Axis(m)": 6980739.136638005,
        "Time(s)": 110
    },
    {
        "Altitude(m)": 604574.5197841752,
        "Argument of Periapsis(deg)": 0.0012502735095955685,
        "Eccentricity": 0.0,
        "Inclination(deg)": 60.0,
        "Latitude(deg)": 20.492951820935073,
        "Longitude(deg)": 81.91672749564708,
        "Mean Anomaly(deg)": 23.80487374554197,
        "RAAN(deg)": 169.9949594103231,
        "Satellite Name": "Test1 749",
        "Satellite Number": 749,
        "Semi-Major Axis(m)": 6980739.136638005,
        "Time(s)": 120
    },
    {
        "Altitude(m)": 604621.0553441994,
        "Argument of Periapsis(deg)": 0.0013544629687285324,
        "Eccentricity": 0.0,
        "Inclination(deg)": 60.0,
        "Latitude(deg)": 21.01998276517396,
        "Longitude(deg)": 82.22912374451195,
        "Mean Anomaly(deg)": 24.424979891003794,
        "RAAN(deg)": 169.99453936118334,
        "Satellite Name": "Test1 749",
        "Satellite Number": 749,
        "Semi-Major Axis(m)": 6980739.136638005,
        "Time(s)": 130
    },
    {
        "Altitude(m)": 604670.0263650873,
        "Argument of Periapsis(deg)": 0.0014586524278614966,
        "Eccentricity": 0.0,
        "Inclination(deg)": 60.0,
        "Latitude(deg)": 21.546242296144516,
        "Longitude(deg)": 82.54401253841378,
        "Mean Anomaly(deg)": 25.045086036465623,
        "RAAN(deg)": 169.9941193120436,
        "Satellite Name": "Test1 749",
        "Satellite Number": 749,
        "Semi-Major Axis(m)": 6980739.136638005,
        "Time(s)": 140
    },
    {
        "Altitude(m)": 604721.3870957454,
        "Argument of Periapsis(deg)": 0.0015628418869944607,
        "Eccentricity": 0.0,
        "Inclination(deg)": 60.0,
        "Latitude(deg)": 22.07170390383629,
        "Longitude(deg)": 82.86147672385167,
        "Mean Anomaly(deg)": 25.66519218192745,
        "RAAN(deg)": 169.99369926290387,
        "Satellite Name": "Test1 749",
        "Satellite Number": 749,
        "Semi-Major Axis(m)": 6980739.136638005,
        "Time(s)": 150
    },
    {
        "Altitude(m)": 604775.0907743046,
        "Argument of Periapsis(deg)": 0.0016670313461274247,
        "Eccentricity": 0.0,
        "Inclination(deg)": 60.0,
        "Latitude(deg)": 22.59634051270732,
        "Longitude(deg)": 83.1816012611549,
        "Mean Anomaly(deg)": 26.285298327389278,
        "RAAN(deg)": 169.99327921376414,
        "Satellite Name": "Test1 749",
        "Satellite Number": 749,
        "Semi-Major Axis(m)": 6980739.136638005,
        "Time(s)": 160
    },
    {
        "Altitude(m)": 604831.0896534284,
        "Argument of Periapsis(deg)": 0.0017712208052603888,
        "Eccentricity": 0.0,
        "Inclination(deg)": 60.0,
        "Latitude(deg)": 23.12012445814634,
        "Longitude(deg)": 83.50447227164183,
        "Mean Anomaly(deg)": 26.90540447285113,
        "RAAN(deg)": 169.99285916462438,
        "Satellite Name": "Test1 749",
        "Satellite Number": 749,
        "Semi-Major Axis(m)": 6980739.136638005,
        "Time(s)": 170
    },
    {
        "Altitude(m)": 604889.3350260679,
        "Argument of Periapsis(deg)": 0.001875410264393353,
        "Eccentricity": 0.0,
        "Inclination(deg)": 60.0,
        "Latitude(deg)": 23.643027462121886,
        "Longitude(deg)": 83.8301775986905,
        "Mean Anomaly(deg)": 27.525510618312957,
        "RAAN(deg)": 169.99243911548464,
        "Satellite Name": "Test1 749",
        "Satellite Number": 749,
        "Semi-Major Axis(m)": 6980739.136638005,
        "Time(s)": 180
    },
    {
        "Altitude(m)": 604949.7772516398,
        "Argument of Periapsis(deg)": 0.0019795997235263173,
        "Eccentricity": 0.0,
        "Inclination(deg)": 60.0,
        "Latitude(deg)": 24.1650206079847,
        "Longitude(deg)": 84.15880736984168,
        "Mean Anomaly(deg)": 28.14561676377479,
        "RAAN(deg)": 169.9920190663449,
        "Satellite Name": "Test1 749",
        "Satellite Number": 749,
        "Semi-Major Axis(m)": 6980739.136638005,
        "Time(s)": 190
    }
]